SCD 1                   
1 22490U 93009B   26006.07411046  .00000683  00000+0  13558-3 0  9996
2 22490  24.9686 128.4574 0041745 222.1380 299.8039 14.46021425737628
TECHSAT 1B (GO-32)      
1 25397U 98043D   26006.22239360  .00000122  00000+0  72936-4 0  9996
2 25397  98.9943 355.0025 0001100  10.7177 349.4024 14.24385685428270
SCD 2                   
1 25504U 98060A   26006.25952036  .00000514  00000+0  92530-4 0  9997
2 25504  24.9970 350.7093 0016669 211.2620 178.4659 14.45439900436875
DLR-TUBSAT              
1 25757U 99029B   25351.55706930  .00000105  00000+0  37650-4 0  9996
2 25757  98.6566 336.2196 0014199 177.8976 182.2281 14.52359578406886
TERRA                   
1 25994U 99068A   26006.25636671  .00000650  00000+0  14177-3 0  9994
2 25994  97.9712  62.0368 0002914  44.2719  29.6436 14.60935457385969
MAROC-TUBSAT            
1 27004U 01056D   26006.22054588 -.00000025  00000+0  24663-4 0  9995
2 27004  99.7925 180.0958 0019637 195.7498 342.6103 13.70254367204009
AQUA                    
1 27424U 02022A   26004.96787593  .00001598  00000+0  32997-3 0  9996
2 27424  98.4069 331.2279 0002002  90.2377   0.6092 14.61798176259425
IRS-P6 (RESOURCESAT-1)  
1 28051U 03046A   26006.31041962  .00000255  00000+0  99182-4 0  9993
2 28051  98.2144  50.5748 0065339 107.6409 316.4855 14.36086581157296
SHIYAN-1 (SY-1)         
1 28220U 04012A   26006.14679481  .00016150  00000+0  57665-3 0  9999
2 28220  97.8894  74.1327 0005384 223.6414 136.4400 15.28935954186292
AURA                    
1 28376U 04026A   26006.30855188  .00001444  00000+0  30435-3 0  9990
2 28376  98.3219 321.6545 0001642  81.5689 278.5697 14.60987733142577
IRS-P5 (CARTOSAT-1)     
1 28649U 05017A   26006.32066408  .00001566  00000+0  16576-3 0  9990
2 28649  97.5470  36.6420 0000821 132.8518 227.2770 14.90508866119705
SINAH 1                 
1 28893U 05043D   26006.28737759  .00000613  00000+0  12617-3 0  9993
2 28893  98.2614 139.9129 0015594  65.6543 294.6286 14.63994892 76835
EROS B                  
1 29079U 06014A   26006.30601013  .00294877  00000+0  16006-2 0  9997
2 29079  97.3418 129.2180 0008275 315.6859  44.3745 15.79176699 94665
RESURS-DK 1             
1 29228U 06021A   26006.17213931  .00003025  00000+0  18022-3 0  9998
2 29228  69.9342  38.6879 0006810 238.8351 121.2148 15.12331347 78075
ARIRANG-2 (KOMPSAT-2)   
1 29268U 06031A   26006.31604071  .00000515  00000+0  10556-3 0  9993
2 29268  97.8256 198.5915 0013372 224.1130 238.4700 14.64522084 37788
LAPAN-TUBSAT            
1 29709U 07001A   26006.29557300  .00001100  00000+0  13323-3 0  9996
2 29709  98.1269   1.9595 0012315 359.9081   0.2129 14.85720050 27117
HAIYANG-1B              
1 31113U 07010A   26006.20721315  .00000174  00000+0  82137-4 0  9998
2 31113  98.3335 354.4774 0012924 325.9251  34.1102 14.30975498977465
COSMO-SKYMED 1          
1 31598U 07023A   26006.27074494  .00005130  00000+0  46267-3 0  9995
2 31598  97.8837 196.8342 0001558  86.8611 273.2788 14.95992185  5579
TERRASAR-X              
1 31698U 07026A   26005.56295509  .00002326  00000+0  11390-3 0  9995
2 31698  97.4444  15.5948 0001843  83.6694 276.4751 15.19159579 28537
WORLDVIEW-1 (WV-1)      
1 32060U 07041A   26006.27103138  .00009807  00000+0  40465-3 0  9997
2 32060  97.3828 128.3867 0002468 301.4497  58.6499 15.24243343 18217
YAOGAN-3                
1 32289U 07055A   26006.32945840  .00004462  00000+0  46830-3 0  9999
2 32289  97.8338  37.7308 0001136  93.0835 267.0512 14.90007330981751
COSMO-SKYMED 2          
1 32376U 07059A   26006.27079777  .00000744  00000+0  99993-4 0  9999
2 32376  97.8811 192.2263 0001398  83.6978 276.4394 14.82145291978011
RADARSAT-2              
1 32382U 07061A   26006.33512185  .00000379  00000+0  16385-3 0  9998
2 32382  98.5793  15.5675 0001177  83.8511 276.2806 14.29984426942827
CARTOSAT-2A             
1 32783U 08021A   26006.29764885  .00001044  00000+0  14807-3 0  9998
2 32783  97.7891  60.3497 0010415 279.4277  80.5757 14.78978256954876
HUANJING 1A (HJ-1A)     
1 33320U 08041A   26006.31622512  .00002795  00000+0  34512-3 0  9990
2 33320  97.6555 358.5913 0018118 313.8139  46.1577 14.83493960934408
HUANJING 1B (HJ-1B)     
1 33321U 08041B   26006.28440750  .00002600  00000+0  32326-3 0  9995
2 33321  97.6413   2.1932 0036696 357.4776   2.6247 14.82909145934415
GEOEYE 1                
1 33331U 08042A   26006.24882237  .00000811  00000+0  16118-3 0  9996
2 33331  98.1219  82.2168 0003736 186.9780 173.1371 14.64741380926446
THEOS                   
1 33396U 08049A   26006.34173516  .00000208  00000+0  11762-3 0  9998
2 33396  98.5830  68.7018 0001240  90.6318 269.5001 14.20103498894997
COSMO-SKYMED 3          
1 33412U 08054A   26006.32758002  .00004262  00000+0  29890-3 0  9995
2 33412  97.8457 222.1357 0017574  93.4963 266.8274 15.05626926932578
YAOGAN-4                
1 33446U 08061A   26006.30308335  .00001724  00000+0  21965-3 0  9993
2 33446  97.9208 301.1657 0013078 235.0011 124.9976 14.82773840921678
GOSAT (IBUKI)           
1 33492U 09002A   26006.27432998  .00003890  00000+0  69401-3 0  9992
2 33492  98.0769 119.5375 0001406 112.6981 247.4373 14.67544325907717
DEIMOS-1                
1 35681U 09041A   26006.33983256  .00000875  00000+0  13711-3 0  9995
2 35681  97.7159 170.8014 0001934  42.1554 317.9804 14.74999696883029
DUBAISAT-1              
1 35682U 09041B   26006.28966255  .00001651  00000+0  25469-3 0  9996
2 35682  97.9803 141.6114 0009613 226.3767 133.6645 14.74690004881237
OCEANSAT-2              
1 35931U 09051A   26006.28232420  .00000354  00000+0  26748-3 0  9994
2 35931  98.2228   9.3927 0015517 339.4682  20.5860 13.99628912856682
WORLDVIEW-2 (WV-2)      
1 35946U 09055A   26006.23515182  .00000247  00000+0  96674-4 0  9995
2 35946  98.4754  81.9817 0004034   6.9872 353.1371 14.37737577852372
SMOS                    
1 36036U 09059A   26006.12442895  .00000476  00000+0  16580-3 0  9999
2 36036  98.4385 195.8127 0000973  82.7116 277.4183 14.39767634850133
YAOGAN-7                
1 36110U 09069A   26006.27577478  .00000825  00000+0  12181-3 0  9996
2 36110  98.0287 252.9436 0024146 198.5105 161.5229 14.77776511865713
TANDEM-X                
1 36605U 10030A   26005.56295435  .00002150  00000+0  10551-3 0  9998
2 36605  97.4455  15.5949 0001910  96.3515 263.7937 15.19158950861959
CARTOSAT-2B             
1 36795U 10035A   26006.27306803  .00000655  00000+0  95917-4 0  9992
2 36795  97.7816  59.5017 0011700   2.3658 357.7607 14.78771635835921
YAOGAN-10               
1 36834U 10038A   26006.31799657  .00002167  00000+0  26217-3 0  9993
2 36834  97.9121  30.9536 0001375  88.7171  33.4134 14.84726534833184
COSMO-SKYMED 4          
1 37216U 10060A   26006.28348625  .00001116  00000+0  14669-3 0  9995
2 37216  97.8805 192.2379 0001327  76.5686 283.5675 14.82152402820580
RESOURCESAT-2           
1 37387U 11015A   26006.27892006  .00000223  00000+0  12210-3 0  9999
2 37387  98.7840  74.7165 0005256 331.9717  28.1176 14.21594096763175
HAIYANG-2A              
1 37781U 11043A   26006.30387693  .00000154  00000+0  19458-3 0  9997
2 37781  99.3376  11.8602 0001381  52.8296 307.2982 13.78837941724373
RASAT                   
1 37791U 11044D   26006.30963442  .00000974  00000+0  17818-3 0  9999
2 37791  98.0636 100.2020 0020410 349.4167 103.2553 14.67953092769431
SRMSAT                  
1 37841U 11058D   26006.19061711  .00000487  00000+0  12054-3 0  9991
2 37841  19.9735 319.9773 0011707 220.8993 168.5521 14.11521930734905
PLEIADES 1A             
1 38012U 11076F   26006.29991935  .00000546  00000+0  12720-3 0  9999
2 38012  98.1793  83.6868 0000918  83.8891   6.9119 14.58590493748392
ZIYUAN 1-02C (ZY 1-02C) 
1 38038U 11079A   26006.31998286  .00000705  00000+0  24716-3 0  9994
2 38038  98.4299  76.8774 0007552  75.1980  13.5131 14.38046063735940
ARIRANG-3 (KOMPSAT-3)   
1 38338U 12025B   26006.31756957  .00000775  00000+0  16509-3 0  9994
2 38338  98.3357 326.0972 0004627 245.6146 114.4572 14.61753051727696
EXACTVIEW-1 (ADS-1B)    
1 38709U 12039C   26006.32030103  .00000230  00000+0  11828-3 0  9995
2 38709  98.9631 120.2262 0009937 278.4788  81.5264 14.24920504699654
SPOT 6                  
1 38755U 12047A   26006.29757175  .00000567  00000+0  13167-3 0  9997
2 38755  98.1539  75.6250 0001130  81.7679 278.3649 14.58549039709455
PLEIADES 1B             
1 39019U 12068A   26006.31668744  .00000589  00000+0  13645-3 0  9995
2 39019  98.1765  83.5778 0001131  90.4670 269.6659 14.58581901697254
GOKTURK 2               
1 39030U 12073A   26006.26887662  .00001102  00000+0  16954-3 0  9998
2 39030  97.6880 211.7160 0001817  99.8284 260.3131 14.75335161700638
LANDSAT 8               
1 39084U 13008A   26006.23996434  .00000572  00000+0  13703-3 0  9990
2 39084  98.2037  78.9480 0001083  99.0982 261.0339 14.57132329674312
SARAL                   
1 39086U 13009A   26006.30959793  .00000162  00000+0  75430-4 0  9999
2 39086  98.5507 194.9199 0002768  62.2537 297.8927 14.32767752672421
GAOFEN-1                
1 39150U 13018A   26006.30186169  .00001383  00000+0  20511-3 0  9995
2 39150  97.9296  81.5230 0018522  69.1160 291.2031 14.76533579684356
VNREDSAT 1              
1 39160U 13021B   26006.27895760  .00000981  00000+0  19176-3 0  9998
2 39160  97.9337  65.6904 0001113  90.1502 269.9829 14.64969142676585
ARIRANG-5 (KOMPSAT-5)   
1 39227U 13042A   26006.28471860  .00001221  00000+0  91615-4 0  9994
2 39227  97.6140 195.2408 0002258 357.1956   2.9257 15.04490349679516
SKYSAT-A                
1 39418U 13066C   26006.09969376  .00004917  00000+0  28978-3 0  9991
2 39418  97.4063  60.5657 0022660 151.4978 208.7497 15.11822662663989
DUBAISAT-2              
1 39419U 13066D   26006.25801301  .00010148  00000+0  65082-3 0  9993
2 39419  97.4465   0.9151 0010170 224.2896 135.7520 15.08650029661968
GPM-CORE                
1 39574U 14009C   26006.29316058  .00016114  00000+0  34396-3 0  9990
2 39574  64.9742 130.4421 0008492 259.6271 100.3912 15.45002818672805
